GLOBALSTAR M068         
1 32266U 07048D   24174.57702912 -.00000073  00000+0  16877-3 0  9991
2 32266  51.9903 318.4410 0001599  88.4729 352.0861 12.62792032772129
GLOBALSTAR M079         
1 37188U 10054A   24174.38476564 -.00000115  00000+0 -61583-4 0  9993
2 37188  52.0014 155.0810 0000132 278.8761 233.5409 12.62271142631011
GLOBALSTAR M074         
1 37189U 10054B   24174.41421729 -.00000127  00000+0 -12817-3 0  9999
2 37189  51.9990 154.3708 0000219  19.9413 145.4696 12.62269759631622
GLOBALSTAR M076         
1 37190U 10054C   24174.44083062 -.00000110  00000+0 -33275-4 0  9992
2 37190  52.0012 154.4267 0000465 312.1601 215.3578 12.62262285631344
GLOBALSTAR M077         
1 37191U 10054D   24174.26803934 -.00000116  00000+0 -70677-4 0  9994
2 37191  52.0067 111.7050 0000551  32.5092 129.1150 12.62273870631692
GLOBALSTAR M075         
1 37192U 10054E   24174.53273763 -.00000095  00000+0  49192-4 0  9999
2 37192  51.9921 196.6054 0000164 157.3594   7.9091 12.62261221630580
GLOBALSTAR M073         
1 37193U 10054F   24174.29447156 -.00000113  00000+0 -53583-4 0  9993
2 37193  52.0054 110.8755 0000441  24.8671 135.6121 12.62266305632389
GLOBALSTAR M083         
1 37739U 11033A   24174.14849955 -.00000097  00000+0  40252-4 0  9993
2 37739  51.9870  60.5411 0000776  82.3814  76.4052 12.62270498601387
GLOBALSTAR M088         
1 37740U 11033B   24174.57935873 -.00000099  00000+0  26850-4 0  9997
2 37740  51.9753 325.0245 0000888 119.4658 318.0506 12.62264463597271
GLOBALSTAR M091         
1 37741U 11033C   24174.51430701 -.00000079  00000+0  13997-3 0  9997
2 37741  52.0008 288.1370 0000946 137.0815 303.3348 12.62264018597762
GLOBALSTAR M085         
1 37742U 11033D   24174.59477338 -.00000067  00000+0  20538-3 0  9999
2 37742  51.9857 239.2468 0000616 154.8675 352.8732 12.62262847598779
GLOBALSTAR M081         
1 37743U 11033E   24174.62226944 -.00000063  00000+0  22638-3 0  9998
2 37743  51.9948 241.7294 0000598 175.0190 336.7571 12.62266253598432
GLOBALSTAR M089         
1 37744U 11033F   24174.42166951 -.00000080  00000+0  13316-3 0  9990
2 37744  51.9903 196.6371 0000247 302.2576 196.1341 12.62265314599252
GLOBALSTAR M084         
1 38040U 11080A   24174.20335098 -.00000090  00000+0  77464-4 0  9994
2 38040  52.0021  64.3947 0000811  44.5397 122.8411 12.62263617577208
GLOBALSTAR M080         
1 38041U 11080B   24174.17565647 -.00000093  00000+0  59571-4 0  9998
2 38041  52.0072  65.9584 0000692  24.6825 137.2715 12.62261925577321
GLOBALSTAR M082         
1 38042U 11080C   24174.55464632 -.00000093  00000+0  58025-4 0  9996
2 38042  52.0095  20.2153 0001366  98.1913 285.9299 12.62270487578081
GLOBALSTAR M092         
1 38043U 11080D   24174.23825796 -.00000123  00000+0 -10495-3 0  9997
2 38043  52.0078 111.5329 0000604  39.1548 107.4578 12.62262832576491
GLOBALSTAR M090         
1 38044U 11080E   24174.58333955 -.00000094  00000+0  57085-4 0  9990
2 38044  51.9904  14.3998 0001053  97.6010 296.9800 12.62264271578204
GLOBALSTAR M086         
1 38045U 11080F   24174.61061560 -.00000091  00000+0  71383-4 0  9999
2 38045  51.9917  14.8386 0000376 170.9245 228.5124 12.62263539578157
GLOBALSTAR M097         
1 39072U 13005A   24174.47058178 -.00000094  00000+0  54782-4 0  9991
2 39072  52.0057 289.4512 0000804 140.6279 219.4647 12.62263811525382
GLOBALSTAR M093         
1 39073U 13005B   24174.60231874 -.00000086  00000+0  10002-3 0  9990
2 39073  51.9819 282.9276 0000867 148.0193 212.0726 12.62274686525354
GLOBALSTAR M094         
1 39074U 13005C   24174.52301102 -.00000094  00000+0  52024-4 0  9994
2 39074  51.9932 197.1894 0000341 186.9164 173.1698 12.62267248526958
GLOBALSTAR M096         
1 39075U 13005D   24174.53615956 -.00000065  00000+0  21566-3 0  9995
2 39075  52.0065 245.3837 0000751 161.5723 198.5171 12.62267122525874
GLOBALSTAR M078         
1 39076U 13005E   24174.58917238 -.00000202  00000+0 -54778-3 0  9994
2 39076  51.9894 330.2219 0001739 103.5197 256.5863 12.62272460524502
GLOBALSTAR M095         
1 39077U 13005F   24174.53588622 -.00000090  00000+0  76296-4 0  9995
2 39077  51.9818 327.7559 0001414 122.5516 237.5487 12.62264157524351
GLOBALSTAR M087         
1 52888U 22064A   24174.41412535 -.00000110  00000+0  35815-4 0  9996
2 52888  51.9733 190.1556 0009444  19.2792 340.8465 13.37577014 98228
